ONEWEB-0328             
1 49197U 21083M   25360.90770052  .00000315  00000+0  82740-3 0  9992
2 49197  87.8985 354.4401 0001650  91.9032 268.2287 13.13468338208289
ONEWEB-0331             
1 49198U 21083N   25360.45241096  .00000102  00000+0  22501-3 0  9997
2 49198  87.9179   9.7481 0001865 104.8198 255.3141 13.18686408207245
ONEWEB-0333             
1 49199U 21083P   25360.90262491  .00000321  00000+0  84410-3 0  9990
2 49199  87.8967 354.4922 0001834  87.4971 272.6369 13.13468319208295
ONEWEB-0334             
1 49200U 21083Q   25360.87159732  .00000041  00000+0  70035-4 0  9990
2 49200  87.9212 308.8277 0002272  54.1443 305.9901 13.20772520214042
ONEWEB-0335             
1 49201U 21083R   25360.97372686  .00000368  00000+0  97380-3 0  9990
2 49201  87.8971 354.4665 0001821  92.6382 267.4955 13.13468545208315
ONEWEB-0336             
1 49202U 21083S   25360.94493282 -.00000285  00000+0 -81657-3 0  9994
2 49202  87.8975 354.4695 0001820 101.4200 258.7134 13.13468502208304
ONEWEB-0337             
1 49203U 21083T   25360.95496443 -.00000111  00000+0 -34012-3 0  9999
2 49203  87.8975 354.4789 0001602  93.4415 266.6898 13.13470235208306
ONEWEB-0338             
1 49204U 21083U   25360.84635460 -.00000024  00000+0 -91163-4 0  9996
2 49204  87.9213 308.8355 0001837  70.9460 289.1873 13.20771800214068
ONEWEB-0339             
1 49205U 21083V   25360.96356697  .00000166  00000+0  41869-3 0  9994
2 49205  87.8977 354.4598 0001654  84.8540 275.2778 13.13469826208282
ONEWEB-0340             
1 49206U 21083W   25360.59097029  .00000037  00000+0  61134-4 0  9990
2 49206  87.9174   9.7262 0001814  92.5098 267.6242 13.18686957207228
ONEWEB-0341             
1 49207U 21083X   25360.59756405  .00000061  00000+0  12164-3 0  9996
2 49207  87.9168   9.7360 0001253  99.1751 260.9523 13.18687092207248
ONEWEB-0342             
1 49208U 21083Y   25360.92841779  .00000006  00000+0 -16210-4 0  9990
2 49208  87.9223 308.7913 0001820  74.3045 285.8289 13.20771531214044
ONEWEB-0343             
1 49209U 21083Z   25360.75757097  .00000062  00000+0  12480-3 0  9996
2 49209  87.9177   9.6972 0001264  83.9208 276.2068 13.18685721207317
ONEWEB-0344             
1 49210U 21083AA  25360.95848094  .00000013  00000+0 -16350-6 0  9998
2 49210  87.8969 354.4914 0001408  94.8434 265.2856 13.13468794208280
ONEWEB-0345             
1 49211U 21083AB  25360.95002209 -.00000121  00000+0 -36654-3 0  9996
2 49211  87.8977 354.4540 0001432  93.9033 266.2260 13.13470083208292
ONEWEB-0346             
1 49212U 21083AC  25360.45076740  .00000094  00000+0  20621-3 0  9997
2 49212  87.9175   9.7722 0002239 104.8374 255.3006 13.18684292207214
ONEWEB-0348             
1 49213U 21083AD  25360.38865031  .00000013  00000+0  11664-5 0  9999
2 49213  87.9217 308.9037 0001675  98.9820 261.1503 13.20772002214009
ONEWEB-0350             
1 49214U 21083AE  25360.95932222  .00000091  00000+0  21437-3 0  9993
2 49214  87.8981 354.4499 0001507  96.2033 263.9268 13.13472025208326
ONEWEB-0351             
1 49215U 21083AF  25360.91250071 -.00000083  00000+0 -23484-3 0  9992
2 49215  87.9221 308.7968 0001631  49.5619 310.5657 13.20770130214039
ONEWEB-0352             
1 49216U 21083AG  25360.93985584 -.00000253  00000+0 -72645-3 0  9991
2 49216  87.8967 354.4756 0001594  74.9899 285.1407 13.13468503208414
ONEWEB-0354             
1 49217U 21083AH  25360.86212808  .00000031  00000+0  45466-4 0  9990
2 49217  87.9219 308.8058 0001635  87.1403 272.9917 13.20771537214067
ONEWEB-0355             
1 49218U 21083AJ  25360.89260243  .00000231  00000+0  59839-3 0  9990
2 49218  87.8968 354.4980 0001563  86.2442 273.8866 13.13468170208280
ONEWEB-0357             
1 49219U 21083AK  25360.85897176 -.00000024  00000+0 -92102-4 0  9991
2 49219  87.9219 308.8025 0001674  76.3548 283.7771 13.20770668214068
ONEWEB-0332             
1 49279U 21090A   25360.88796901  .00000255  00000+0  65236-3 0  9993
2 49279  87.9002 324.0446 0001887  73.6240 286.5097 13.14504415204942
ONEWEB-0347             
1 49280U 21090B   25360.84951035  .00000033  00000+0  48014-4 0  9992
2 49280  87.9216 308.8139 0002100  76.1088 284.0279 13.20771410208292
ONEWEB-0349             
1 49281U 21090C   25360.57803723  .00000108  00000+0  23248-3 0  9997
2 49281  87.9217 308.8666 0001792  78.0222 282.1112 13.20771635207042
ONEWEB-0353             
1 49282U 21090D   25360.95615876  .00000030  00000+0  47443-4 0  9998
2 49282  87.9010 324.0179 0001963  76.9590 283.1759 13.14500468204950
ONEWEB-0356             
1 49283U 21090E   25360.57645933  .00000179  00000+0  40854-3 0  9996
2 49283  87.9218 308.8604 0002636  91.0160 269.1275 13.20771907207048
ONEWEB-0358             
1 49284U 21090F   25360.90947851 -.00000075  00000+0 -21570-3 0  9999
2 49284  87.9222 308.7954 0001844  83.8249 276.3094 13.20771171207815
ONEWEB-0359             
1 49285U 21090G   25360.90631509  .00000011  00000+0 -47679-5 0  9999
2 49285  87.9220 308.7944 0001584  91.3670 268.7645 13.20770874207799
ONEWEB-0360             
1 49286U 21090H   25360.89685893  .00000072  00000+0  14413-3 0  9997
2 49286  87.9207 308.8045 0001677  79.3260 280.8062 13.20772076207101
ONEWEB-0361             
1 49287U 21090J   25360.42338101  .00000174  00000+0  39647-3 0  9993
2 49287  87.9218 308.8950 0001977  83.2490 276.8868 13.20770540207496
ONEWEB-0362             
1 49288U 21090K   25360.92148343  .00000049  00000+0  91165-4 0  9991
2 49288  87.9203 339.2604 0001591  79.2109 280.9202 13.19725977204193
ONEWEB-0363             
1 49289U 21090L   25360.89369592  .00000089  00000+0  18633-3 0  9991
2 49289  87.9219 308.8007 0002098  86.6407 273.4966 13.20772305207563
ONEWEB-0364             
1 49290U 21090M   25360.93157412 -.00000058  00000+0 -17520-3 0  9996
2 49290  87.9212 308.8149 0001911  81.0842 279.0508 13.20771455208706
ONEWEB-0365             
1 49291U 21090N   25360.93096547 -.00000029  00000+0 -10357-3 0  9997
2 49291  87.9222 339.2260 0001770  78.7631 281.3700 13.19725521203708
ONEWEB-0366             
1 49292U 21090P   25360.95298687 -.00000030  00000+0 -11644-3 0  9991
2 49292  87.8999 324.0341 0001809  83.8476 276.2860 13.14503860204939
ONEWEB-0367             
1 49293U 21090Q   25360.89212499 -.00000004  00000+0 -42201-4 0  9997
2 49293  87.9230 308.8005 0001684  73.5884 286.5435 13.20771381207089
ONEWEB-0368             
1 49294U 21090R   25360.86529863  .00000037  00000+0  58112-4 0  9993
2 49294  87.9215 308.8337 0002623  75.7044 284.4380 13.20772352208230
ONEWEB-0369             
1 49295U 21090S   25360.69876162 -.00000010  00000+0 -56772-4 0  9995
2 49295  87.9210 339.2983 0001855  81.8974 278.2369 13.19727011203667
ONEWEB-0370             
1 49296U 21090T   25360.90158850  .00000002  00000+0 -27524-4 0  9990
2 49296  87.9213 308.8020 0001467  80.8647 279.2653 13.20771676207120
ONEWEB-0371             
1 49297U 21090U   25360.93411782 -.00000009  00000+0 -53647-4 0  9993
2 49297  87.9211 339.2392 0001726  81.7605 278.3724 13.19725885203732
ONEWEB-0372             
1 49298U 21090V   25360.89040030  .00000108  00000+0  23486-3 0  9998
2 49298  87.9214 308.8036 0001895  75.9612 284.1732 13.20771581207096
ONEWEB-0373             
1 49299U 21090W   25360.76585356 -.00000006  00000+0 -45764-4 0  9993
2 49299  87.9212 308.8413 0001807  83.3559 276.7780 13.20770604208265
ONEWEB-0374             
1 49300U 21090X   25360.94029987 -.00000199  00000+0 -57123-3 0  9993
2 49300  87.9003 324.0158 0002296  88.9885 271.1507 13.14501996204933
ONEWEB-0375             
1 49301U 21090Y   25360.60172392  .00000050  00000+0  90351-4 0  9991
2 49301  87.9212 308.8545 0002085  95.1610 264.9761 13.20771183207746
ONEWEB-0376             
1 49302U 21090Z   25360.93253841  .00000024  00000+0  28018-4 0  9999
2 49302  87.9217 339.2278 0001840  77.2290 282.9048 13.19724783203731
ONEWEB-0377             
1 49303U 21090AA  25360.89068390  .00000015  00000+0  41223-5 0  9992
2 49303  87.9219 308.7996 0001730  84.7016 275.4314 13.20771304207773
ONEWEB-0378             
1 49304U 21090AB  25360.91277959  .00000005  00000+0 -19640-4 0  9996
2 49304  87.9213 308.8087 0001941  82.1739 277.9614 13.20771204207047
ONEWEB-0379             
1 49305U 21090AC  25360.93555075 -.00000187  00000+0 -53897-3 0  9990
2 49305  87.9004 324.0258 0001933  81.8591 278.2758 13.14502569204936
ONEWEB-0380             
1 49306U 21090AD  25360.85356652 -.00000020  00000+0 -82814-4 0  9990
2 49306  87.9210 339.2642 0001796  90.6048 269.5290 13.19725356203695
ONEWEB-0381             
1 49307U 21090AE  25360.88738895  .00000037  00000+0  58931-4 0  9996
2 49307  87.9219 308.8028 0001959  86.8849 273.2508 13.20771296207089
ONEWEB-0382             
1 49308U 21090AF  25360.95049364 -.00001395  00000+0 -34626-2 0  9994
2 49308  87.9223 308.7866 0002374  89.1802 270.9604 13.20779431207081
ONEWEB-0383             
1 49309U 21090AG  25360.92919707 -.00000232  00000+0 -65919-3 0  9998
2 49309  87.9009 324.0118 0001979  82.0738 278.0617 13.14501048204962
ONEWEB-0384             
1 49310U 21090AH  25360.94362284 -.00000076  00000+0 -21986-3 0  9996
2 49310  87.9228 308.8249 0002308  84.6080 275.5317 13.20799652207090
ONEWEB-0385             
1 49311U 21090AJ  25360.86686935  .00000034  00000+0  51755-4 0  9990
2 49311  87.9219 308.8075 0001936  83.0995 277.0358 13.20771378207055
ONEWEB-0386             
1 49312U 21090AK  25360.88423333  .00000063  00000+0  12401-3 0  9990
2 49312  87.9221 308.7886 0002067  82.4858 277.6510 13.20770850207077
ONEWEB-0387             
1 49313U 21090AL  25360.94420727 -.00000048  00000+0 -14942-3 0  9999
2 49313  87.9212 308.8203 0001758  86.6634 273.4701 13.20770403207087
ONEWEB-0388             
1 49314U 21090AM  25360.69719628 -.00000024  00000+0 -91580-4 0  9991
2 49314  87.9204 339.2955 0001943  86.4013 273.7342 13.19724698203663
